CCSDS_OMM_VERS = 2.0
CREATION_DATE  = 
ORIGINATOR     = 

OBJECT_NAME    = SL-14 R/B
OBJECT_ID      = 1986-046B
CENTER_NAME    = EARTH
REF_FRAME      = TEME
TIME_SYSTEM    = UTC
MEAN_ELEMENT_THEORY = SGP/SGP4

EPOCH          = 2026-02-26T03:42:59.930784
MEAN_MOTION    = 14.85577231
ECCENTRICITY   = .0021543
INCLINATION    = 82.4788
RA_OF_ASC_NODE = 91.0841
ARG_OF_PERICENTER = 265.8616
MEAN_ANOMALY   = 94.0138

EPHEMERIS_TYPE = 0
CLASSIFICATION_TYPE = U
NORAD_CAT_ID   = 16792
ELEMENT_SET_NO = 999
REV_AT_EPOCH   = 12469
BSTAR          = .43962E-4
MEAN_MOTION_DOT = .405E-5
MEAN_MOTION_DDOT = 0

CCSDS_OMM_VERS = 2.0
CREATION_DATE  = 
ORIGINATOR     = 

OBJECT_NAME    = SL-14 R/B
OBJECT_ID      = 1986-055B
CENTER_NAME    = EARTH
REF_FRAME      = TEME
TIME_SYSTEM    = UTC
MEAN_ELEMENT_THEORY = SGP/SGP4

EPOCH          = 2026-02-25T18:18:25.907040
MEAN_MOTION    = 14.85629610
ECCENTRICITY   = .0019234
INCLINATION    = 82.5224
RA_OF_ASC_NODE = 137.8828
ARG_OF_PERICENTER = 16.3295
MEAN_ANOMALY   = 130.8754

EPHEMERIS_TYPE = 0
CLASSIFICATION_TYPE = U
NORAD_CAT_ID   = 16882
ELEMENT_SET_NO = 999
REV_AT_EPOCH   = 11759
BSTAR          = .46653E-4
MEAN_MOTION_DOT = .429E-5
MEAN_MOTION_DDOT = 0

CCSDS_OMM_VERS = 2.0
CREATION_DATE  = 
ORIGINATOR     = 

OBJECT_NAME    = AJISAI (EGS)
OBJECT_ID      = 1986-061A
CENTER_NAME    = EARTH
REF_FRAME      = TEME
TIME_SYSTEM    = UTC
MEAN_ELEMENT_THEORY = SGP/SGP4

EPOCH          = 2026-02-26T03:44:21.524352
MEAN_MOTION    = 12.44515469
ECCENTRICITY   = .0011237
INCLINATION    = 50.0084
RA_OF_ASC_NODE = 128.8154
ARG_OF_PERICENTER = 257.3006
MEAN_ANOMALY   = 192.2525

EPHEMERIS_TYPE = 0
CLASSIFICATION_TYPE = U
NORAD_CAT_ID   = 16908
ELEMENT_SET_NO = 999
REV_AT_EPOCH   = 46656
BSTAR          = -.38872E-4
MEAN_MOTION_DOT = -.103E-5
MEAN_MOTION_DDOT = 0

CCSDS_OMM_VERS = 2.0
CREATION_DATE  = 
ORIGINATOR     = 

OBJECT_NAME    = COSMOS 1812
OBJECT_ID      = 1987-003A
CENTER_NAME    = EARTH
REF_FRAME      = TEME
TIME_SYSTEM    = UTC
MEAN_ELEMENT_THEORY = SGP/SGP4

EPOCH          = 2026-02-26T05:35:10.477824
MEAN_MOTION    = 16.10944514
ECCENTRICITY   = .0005381
INCLINATION    = 82.4736
RA_OF_ASC_NODE = 208.7531
ARG_OF_PERICENTER = 288.5772
MEAN_ANOMALY   = 71.4926

EPHEMERIS_TYPE = 0
CLASSIFICATION_TYPE = U
NORAD_CAT_ID   = 17295
ELEMENT_SET_NO = 999
REV_AT_EPOCH   = 14263
BSTAR          = .83916E-3
MEAN_MOTION_DOT = .82497E-2
MEAN_MOTION_DDOT = .38647E-3

CCSDS_OMM_VERS = 2.0
CREATION_DATE  = 
ORIGINATOR     = 

OBJECT_NAME    = SL-14 R/B
OBJECT_ID      = 1987-024B
CENTER_NAME    = EARTH
REF_FRAME      = TEME
TIME_SYSTEM    = UTC
MEAN_ELEMENT_THEORY = SGP/SGP4

EPOCH          = 2026-02-26T03:00:12.298176
MEAN_MOTION    = 14.86119449
ECCENTRICITY   = .0016846
INCLINATION    = 82.5262
RA_OF_ASC_NODE = 103.6354
ARG_OF_PERICENTER = 301.6750
MEAN_ANOMALY   = 58.2823

EPHEMERIS_TYPE = 0
CLASSIFICATION_TYPE = U
NORAD_CAT_ID   = 17567
ELEMENT_SET_NO = 999
REV_AT_EPOCH   = 8641
BSTAR          = .4173E-4
MEAN_MOTION_DOT = .39E-5
MEAN_MOTION_DDOT = 0

CCSDS_OMM_VERS = 2.0
CREATION_DATE  = 
ORIGINATOR     = 

OBJECT_NAME    = COSMOS 1833
OBJECT_ID      = 1987-027A
CENTER_NAME    = EARTH
REF_FRAME      = TEME
TIME_SYSTEM    = UTC
MEAN_ELEMENT_THEORY = SGP/SGP4

EPOCH          = 2026-02-26T02:37:15.542688
MEAN_MOTION    = 14.13056827
ECCENTRICITY   = .0024727
INCLINATION    = 70.9234
RA_OF_ASC_NODE = 350.3556
ARG_OF_PERICENTER = 230.4119
MEAN_ANOMALY   = 129.4819

EPHEMERIS_TYPE = 0
CLASSIFICATION_TYPE = U
NORAD_CAT_ID   = 17589
ELEMENT_SET_NO = 999
REV_AT_EPOCH   = 868
BSTAR          = -.33154E-4
MEAN_MOTION_DOT = -.11E-5
MEAN_MOTION_DDOT = 0

CCSDS_OMM_VERS = 2.0
CREATION_DATE  = 
ORIGINATOR     = 

OBJECT_NAME    = SL-16 R/B
OBJECT_ID      = 1987-027B
CENTER_NAME    = EARTH
REF_FRAME      = TEME
TIME_SYSTEM    = UTC
MEAN_ELEMENT_THEORY = SGP/SGP4

EPOCH          = 2026-02-25T03:04:40.943424
MEAN_MOTION    = 14.17167113
ECCENTRICITY   = .00040694
INCLINATION    = 71.0032
RA_OF_ASC_NODE = 302.9665
ARG_OF_PERICENTER = 166.9406
MEAN_ANOMALY   = 193.1824

EPHEMERIS_TYPE = 0
CLASSIFICATION_TYPE = U
NORAD_CAT_ID   = 17590
ELEMENT_SET_NO = 999
REV_AT_EPOCH   = 1356
BSTAR          = .43338206E-4
MEAN_MOTION_DOT = .39E-6
MEAN_MOTION_DDOT = 0

CCSDS_OMM_VERS = 2.0
CREATION_DATE  = 
ORIGINATOR     = 

OBJECT_NAME    = SL-14 R/B
OBJECT_ID      = 1987-038B
CENTER_NAME    = EARTH
REF_FRAME      = TEME
TIME_SYSTEM    = UTC
MEAN_ELEMENT_THEORY = SGP/SGP4

EPOCH          = 2026-02-25T04:06:17.832672
MEAN_MOTION    = 14.85356208
ECCENTRICITY   = .00185813
INCLINATION    = 82.5024
RA_OF_ASC_NODE = 308.6001
ARG_OF_PERICENTER = 201.8303
MEAN_ANOMALY   = 158.2123

EPHEMERIS_TYPE = 0
CLASSIFICATION_TYPE = U
NORAD_CAT_ID   = 17912
ELEMENT_SET_NO = 999
REV_AT_EPOCH   = 7737
BSTAR          = .42555072E-4
MEAN_MOTION_DOT = .391E-5
MEAN_MOTION_DDOT = 0

CCSDS_OMM_VERS = 2.0
CREATION_DATE  = 
ORIGINATOR     = 

OBJECT_NAME    = COSMOS 1844
OBJECT_ID      = 1987-041A
CENTER_NAME    = EARTH
REF_FRAME      = TEME
TIME_SYSTEM    = UTC
MEAN_ELEMENT_THEORY = SGP/SGP4

EPOCH          = 2026-02-25T10:47:19.006656
MEAN_MOTION    = 14.14552684
ECCENTRICITY   = .00293732
INCLINATION    = 70.8988
RA_OF_ASC_NODE = 59.9932
ARG_OF_PERICENTER = 36.8248
MEAN_ANOMALY   = 323.4884

EPHEMERIS_TYPE = 0
CLASSIFICATION_TYPE = U
NORAD_CAT_ID   = 17973
ELEMENT_SET_NO = 999
REV_AT_EPOCH   = 185
BSTAR          = .48102072E-4
MEAN_MOTION_DOT = .44E-6
MEAN_MOTION_DDOT = 0

CCSDS_OMM_VERS = 2.0
CREATION_DATE  = 
ORIGINATOR     = 

OBJECT_NAME    = SL-14 R/B
OBJECT_ID      = 1987-055B
CENTER_NAME    = EARTH
REF_FRAME      = TEME
TIME_SYSTEM    = UTC
MEAN_ELEMENT_THEORY = SGP/SGP4

EPOCH          = 2026-02-25T08:27:14.511456
MEAN_MOTION    = 14.85611743
ECCENTRICITY   = .00220351
INCLINATION    = 82.5021
RA_OF_ASC_NODE = 0.6556
ARG_OF_PERICENTER = 56.7873
MEAN_ANOMALY   = 303.5451

EPHEMERIS_TYPE = 0
CLASSIFICATION_TYPE = U
NORAD_CAT_ID   = 18153
ELEMENT_SET_NO = 999
REV_AT_EPOCH   = 6810
BSTAR          = .60986563E-4
MEAN_MOTION_DOT = .554E-5
MEAN_MOTION_DDOT = 0

CCSDS_OMM_VERS = 2.0
CREATION_DATE  = 
ORIGINATOR     = 

OBJECT_NAME    = COSMOS 1867
OBJECT_ID      = 1987-060A
CENTER_NAME    = EARTH
REF_FRAME      = TEME
TIME_SYSTEM    = UTC
MEAN_ELEMENT_THEORY = SGP/SGP4

EPOCH          = 2026-02-25T18:35:06.671328
MEAN_MOTION    = 14.31500915
ECCENTRICITY   = .0014282
INCLINATION    = 65.0126
RA_OF_ASC_NODE = 340.0729
ARG_OF_PERICENTER = 277.9156
MEAN_ANOMALY   = 82.0307

EPHEMERIS_TYPE = 0
CLASSIFICATION_TYPE = U
NORAD_CAT_ID   = 18187
ELEMENT_SET_NO = 999
REV_AT_EPOCH   = 1823
BSTAR          = .31533E-4
MEAN_MOTION_DOT = -.16E-6
MEAN_MOTION_DDOT = 0

CCSDS_OMM_VERS = 2.0
CREATION_DATE  = 
ORIGINATOR     = 

OBJECT_NAME    = SL-14 R/B
OBJECT_ID      = 1988-001B
CENTER_NAME    = EARTH
REF_FRAME      = TEME
TIME_SYSTEM    = UTC
MEAN_ELEMENT_THEORY = SGP/SGP4

EPOCH          = 2026-02-25T22:52:11.068032
MEAN_MOTION    = 14.85510591
ECCENTRICITY   = .0016594
INCLINATION    = 82.5131
RA_OF_ASC_NODE = 206.3972
ARG_OF_PERICENTER = 277.8941
MEAN_ANOMALY   = 82.0392

EPHEMERIS_TYPE = 0
CLASSIFICATION_TYPE = U
NORAD_CAT_ID   = 18749
ELEMENT_SET_NO = 999
REV_AT_EPOCH   = 4028
BSTAR          = .58963E-4
MEAN_MOTION_DOT = .534E-5
MEAN_MOTION_DDOT = 0

