SL-14 R/B               
1 16792U 86046B   26057.15486031  .00000405  00000+0  43962-4 0  9993
2 16792  82.4788  91.0841 0021543 265.8616  94.0138 14.85577231124696
SL-14 R/B               
1 16882U 86055B   26056.76279985  .00000429  00000+0  46653-4 0  9993
2 16882  82.5224 137.8828 0019234  16.3295 130.8754 14.85629610117595
AJISAI (EGS)            
1 16908U 86061A   26057.15580468 -.00000103  00000+0 -38872-4 0  9999
2 16908  50.0084 128.8154 0011237 257.3006 192.2525 12.44515469466563
COSMOS 1812             
1 17295U 87003A   26057.23276016  .00824970  38647-3  83916-3 0  9990
2 17295  82.4736 208.7531 0005381 288.5772  71.4926 16.10944514142638
SL-14 R/B               
1 17567U 87024B   26057.12514234  .00000390  00000+0  41730-4 0  9999
2 17567  82.5262 103.6354 0016846 301.6750  58.2823 14.86119449 86416
COSMOS 1833             
1 17589U 87027A   26057.10920767 -.00000110  00000+0 -33154-4 0  9999
2 17589  70.9234 350.3556 0024727 230.4119 129.4819 14.13056827  8689
SL-16 R/B               
1 17590U 87027B   26056.12825166  .00000039  00000+0  43338-4 0  9992
2 17590  71.0032 302.9665 0004069 166.9406 193.1824 14.17167113 13564
SL-14 R/B               
1 17912U 87038B   26056.17103973  .00000391  00000+0  42555-4 0  9993
2 17912  82.5024 308.6001 0018581 201.8303 158.2123 14.85356208 77379
COSMOS 1844             
1 17973U 87041A   26056.44952554  .00000044  00000+0  48102-4 0  9990
2 17973  70.8988  59.9932 0029373  36.8248 323.4884 14.14552684  1857
SL-14 R/B               
1 18153U 87055B   26056.35225129  .00000554  00000+0  60987-4 0  9998
2 18153  82.5021   0.6556 0022035  56.7873 303.5451 14.85611743 68104
COSMOS 1867             
1 18187U 87060A   26056.77438277 -.00000016  00000+0  31533-4 0  9996
2 18187  65.0126 340.0729 0014282 277.9156  82.0307 14.31500915 18239
SL-14 R/B               
1 18749U 88001B   26056.95290588  .00000534  00000+0  58963-4 0  9997
2 18749  82.5131 206.3972 0016594 277.8941  82.0392 14.85510591 40280
